start=new Date('2022-02-10T00:00:00.000Z').valueOf();
sats=[{"ELEMENT_SET_NO":"999","MEAN_ANOMALY":"291.5711","TLE_LINE1":"1 48311U 21036AM  22040.40071521  .00000280  00000-0  37688-4 0  9993","SITE":"AFETR","TIME_SYSTEM":"UTC","RCS_SIZE":"LARGE","ARG_OF_PERICENTER":"68.5434","COUNTRY_CODE":"US","OBJECT_TYPE":"PAYLOAD","BSTAR":"0.00003768800000","CENTER_NAME":"EARTH","ECCENTRICITY":"0.00014630","OBJECT_NAME":"STARLINK-2534","CLASSIFICATION_TYPE":"U","GP_ID":"195639861","OBJECT_ID":"2021-036AM","REF_FRAME":"TEME","EPOCH":"2022-02-09T09:37:01.794144","INCLINATION":"53.0541","REV_AT_EPOCH":"4370","DECAY_DATE":null,"APOAPSIS":"548.265","MEAN_MOTION":"15.06387459","NORAD_CAT_ID":"48311","SEMIMAJOR_AXIS":"6925.387","RA_OF_ASC_NODE":"297.3077","MEAN_MOTION_DOT":"0.00000280","PERIAPSIS":"546.239","FILE":"3295989","LAUNCH_DATE":"2021-04-29","TLE_LINE2":"2 48311  53.0541 297.3077 0001463  68.5434 291.5711 15.06387459 43704","MEAN_MOTION_DDOT":"0.0000000000000","MEAN_ELEMENT_THEORY":"SGP4","PERIOD":"95.593","EPHEMERIS_TYPE":"0"},{"ELEMENT_SET_NO":"999","RCS_SIZE":"LARGE","TIME_SYSTEM":"UTC","TLE_LINE1":"1 48312U 21036AN  22040.52974065  .00010504  00000-0  72270-3 0  9997","SITE":"AFETR","MEAN_ANOMALY":"307.9411","COUNTRY_CODE":"US","ARG_OF_PERICENTER":"52.1755","CENTER_NAME":"EARTH","BSTAR":"0.00072270000000","OBJECT_TYPE":"PAYLOAD","CLASSIFICATION_TYPE":"U","OBJECT_NAME":"STARLINK-2061","ECCENTRICITY":"0.00019590","GP_ID":"195640111","OBJECT_ID":"2021-036AN","REF_FRAME":"TEME","REV_AT_EPOCH":"4372","INCLINATION":"53.0538","EPOCH":"2022-02-09T12:42:49.592160","DECAY_DATE":null,"MEAN_MOTION":"15.06415623","APOAPSIS":"548.522","SEMIMAJOR_AXIS":"6925.301","NORAD_CAT_ID":"48312","RA_OF_ASC_NODE":"296.7229","LAUNCH_DATE":"2021-04-29","FILE":"3295989","PERIAPSIS":"545.809","MEAN_MOTION_DOT":"0.00010504","EPHEMERIS_TYPE":"0","MEAN_ELEMENT_THEORY":"SGP4","PERIOD":"95.591","MEAN_MOTION_DDOT":"0.0000000000000","TLE_LINE2":"2 48312  53.0538 296.7229 0001959  52.1755 307.9411 15.06415623 43724"},{"EPOCH":"2022-02-09T17:24:07.346592","REV_AT_EPOCH":"4439","INCLINATION":"53.0527","REF_FRAME":"TEME","OBJECT_ID":"2021-036AP","DECAY_DATE":null,"NORAD_CAT_ID":"48313","SEMIMAJOR_AXIS":"6925.340","RA_OF_ASC_NODE":"295.8405","APOAPSIS":"548.498","MEAN_MOTION":"15.06402808","MEAN_MOTION_DDOT":"0.0000000000000","TLE_LINE2":"2 48313  53.0527 295.8405 0001867  62.7072 297.4107 15.06402808 44396","EPHEMERIS_TYPE":"0","MEAN_ELEMENT_THEORY":"SGP4","PERIOD":"95.592","PERIAPSIS":"545.912","MEAN_MOTION_DOT":"0.00002197","LAUNCH_DATE":"2021-04-29","FILE":"3296246","SITE":"AFETR","TLE_LINE1":"1 48313U 21036AP  22040.72508503  .00002197  00000-0  16631-3 0  9998","MEAN_ANOMALY":"297.4107","RCS_SIZE":"LARGE","TIME_SYSTEM":"UTC","ELEMENT_SET_NO":"999","BSTAR":"0.00016631000000","OBJECT_TYPE":"PAYLOAD","CENTER_NAME":"EARTH","ARG_OF_PERICENTER":"62.7072","COUNTRY_CODE":"US","ECCENTRICITY":"0.00018670","CLASSIFICATION_TYPE":"U","OBJECT_NAME":"STARLINK-2541","GP_ID":"195648161"},{"MEAN_MOTION_DDOT":"0.0000000000000","TLE_LINE2":"2 48314  53.0545 295.8675 0001672  63.9226 296.1935 15.06401262 44392","EPHEMERIS_TYPE":"0","PERIOD":"95.592","MEAN_ELEMENT_THEORY":"SGP4","PERIAPSIS":"546.052","MEAN_MOTION_DOT":"0.00003390","LAUNCH_DATE":"2021-04-29","FILE":"3296234","SEMIMAJOR_AXIS":"6925.345","NORAD_CAT_ID":"48314","RA_OF_ASC_NODE":"295.8675","MEAN_MOTION":"15.06401262","APOAPSIS":"548.368","DECAY_DATE":null,"EPOCH":"2022-02-09T17:18:48.762144","REV_AT_EPOCH":"4439","INCLINATION":"53.0545","OBJECT_ID":"2021-036AQ","REF_FRAME":"TEME","GP_ID":"195647911","ECCENTRICITY":"0.00016720","OBJECT_NAME":"STARLINK-2549","CLASSIFICATION_TYPE":"U","BSTAR":"0.00024637000000","OBJECT_TYPE":"PAYLOAD","CENTER_NAME":"EARTH","ARG_OF_PERICENTER":"63.9226","COUNTRY_CODE":"US","TLE_LINE1":"1 48314U 21036AQ  22040.72139771  .00003390  00000-0  24637-3 0  9997","SITE":"AFETR","MEAN_ANOMALY":"296.1935","RCS_SIZE":"LARGE","TIME_SYSTEM":"UTC","ELEMENT_SET_NO":"999"},{"GP_ID":"195639361","OBJECT_NAME":"STARLINK-2506","CLASSIFICATION_TYPE":"U","ECCENTRICITY":"0.00017120","COUNTRY_CODE":"US","ARG_OF_PERICENTER":"68.2617","CENTER_NAME":"EARTH","BSTAR":"0.00061034000000","OBJECT_TYPE":"PAYLOAD","ELEMENT_SET_NO":"999","RCS_SIZE":"LARGE","TIME_SYSTEM":"UTC","SITE":"AFETR","TLE_LINE1":"1 48315U 21036AR  22040.51870020  .00008821  00000-0  61034-3 0  9990","MEAN_ANOMALY":"291.8554","LAUNCH_DATE":"2021-04-29","FILE":"3295989","PERIAPSIS":"546.030","MEAN_MOTION_DOT":"0.00008821","EPHEMERIS_TYPE":"0","PERIOD":"95.592","MEAN_ELEMENT_THEORY":"SGP4","MEAN_MOTION_DDOT":"0.0000000000000","TLE_LINE2":"2 48315  53.0527 296.7787 0001712  68.2617 291.8554 15.06399214 43711","APOAPSIS":"548.402","MEAN_MOTION":"15.06399214","NORAD_CAT_ID":"48315","SEMIMAJOR_AXIS":"6925.351","RA_OF_ASC_NODE":"296.7787","DECAY_DATE":null,"REF_FRAME":"TEME","OBJECT_ID":"2021-036AR","REV_AT_EPOCH":"4371","INCLINATION":"53.0527","EPOCH":"2022-02-09T12:26:55.697280"},{"GP_ID":"195639611","CLASSIFICATION_TYPE":"U","OBJECT_NAME":"STARLINK-2507","ECCENTRICITY":"0.00016520","COUNTRY_CODE":"US","ARG_OF_PERICENTER":"63.3052","CENTER_NAME":"EARTH","BSTAR":"0.00027574000000","OBJECT_TYPE":"PAYLOAD","ELEMENT_SET_NO":"999","RCS_SIZE":"LARGE","TIME_SYSTEM":"UTC","SITE":"AFETR","TLE_LINE1":"1 48316U 21036AS  22040.44863367  .00003828  00000-0  27574-3 0  9992","MEAN_ANOMALY":"296.8106","LAUNCH_DATE":"2021-04-29","FILE":"3295989","PERIAPSIS":"546.076","MEAN_MOTION_DOT":"0.00003828","EPHEMERIS_TYPE":"0","PERIOD":"95.592","MEAN_ELEMENT_THEORY":"SGP4","MEAN_MOTION_DDOT":"0.0000000000000","TLE_LINE2":"2 48316  53.0538 297.0946 0001652  63.3052 296.8106 15.06397713 43706","APOAPSIS":"548.365","MEAN_MOTION":"15.06397713","SEMIMAJOR_AXIS":"6925.356","NORAD_CAT_ID":"48316","RA_OF_ASC_NODE":"297.0946","DECAY_DATE":null,"OBJECT_ID":"2021-036AS","REF_FRAME":"TEME","REV_AT_EPOCH":"4370","INCLINATION":"53.0538","EPOCH":"2022-02-09T10:46:01.949088"},{"GP_ID":"195647736","CLASSIFICATION_TYPE":"U","OBJECT_NAME":"STARLINK-2513","ECCENTRICITY":"0.00017920","CENTER_NAME":"EARTH","OBJECT_TYPE":"PAYLOAD","BSTAR":"0.00018409000000","COUNTRY_CODE":"US","ARG_OF_PERICENTER":"71.6212","TIME_SYSTEM":"UTC","RCS_SIZE":"LARGE","MEAN_ANOMALY":"288.4972","TLE_LINE1":"1 48317U 21036AT  22040.71033807  .00002462  00000-0  18409-3 0  9991","SITE":"AFETR","ELEMENT_SET_NO":"999","PERIOD":"95.592","MEAN_ELEMENT_THEORY":"SGP4","EPHEMERIS_TYPE":"0","TLE_LINE2":"2 48317  53.0559 295.9170 0001792  71.6212 288.4972 15.06400952 44395","MEAN_MOTION_DDOT":"0.0000000000000","FILE":"3296222","LAUNCH_DATE":"2021-04-29","MEAN_MOTION_DOT":"0.00002462","PERIAPSIS":"545.970","NORAD_CAT_ID":"48317","SEMIMAJOR_AXIS":"6925.346","RA_OF_ASC_NODE":"295.9170","APOAPSIS":"548.452","MEAN_MOTION":"15.06400952","DECAY_DATE":null,"INCLINATION":"53.0559","REV_AT_EPOCH":"4439","EPOCH":"2022-02-09T17:02:53.209248","REF_FRAME":"TEME","OBJECT_ID":"2021-036AT"},{"GP_ID":"195640613","ECCENTRICITY":"0.00017510","OBJECT_NAME":"STARLINK-2509","CLASSIFICATION_TYPE":"U","OBJECT_TYPE":"PAYLOAD","BSTAR":"0.00062508000000","CENTER_NAME":"EARTH","ARG_OF_PERICENTER":"70.4719","COUNTRY_CODE":"US","MEAN_ANOMALY":"289.6459","TLE_LINE1":"1 48318U 21036AU  22040.56936686  .00009043  00000-0  62508-3 0  9993","SITE":"AFETR","TIME_SYSTEM":"UTC","RCS_SIZE":"LARGE","ELEMENT_SET_NO":"999","TLE_LINE2":"2 48318  53.0550 306.5357 0001751  70.4719 289.6459 15.06407147 43583","MEAN_MOTION_DDOT":"0.0000000000000","PERIOD":"95.592","MEAN_ELEMENT_THEORY":"SGP4","EPHEMERIS_TYPE":"0","MEAN_MOTION_DOT":"0.00009043","PERIAPSIS":"545.979","FILE":"3295989","LAUNCH_DATE":"2021-04-29","RA_OF_ASC_NODE":"306.5357","SEMIMAJOR_AXIS":"6925.327","NORAD_CAT_ID":"48318","APOAPSIS":"548.404","MEAN_MOTION":"15.06407147","DECAY_DATE":null,"EPOCH":"2022-02-09T13:39:53.296704","INCLINATION":"53.0550","REV_AT_EPOCH":"4358","REF_FRAME":"TEME","OBJECT_ID":"2021-036AU"},{"MEAN_MOTION":"15.06408369","APOAPSIS":"548.371","SEMIMAJOR_AXIS":"6925.323","RA_OF_ASC_NODE":"307.1404","NORAD_CAT_ID":"48319","FILE":"3295989","LAUNCH_DATE":"2021-04-29","MEAN_MOTION_DOT":"0.00004773","PERIAPSIS":"546.005","PERIOD":"95.592","MEAN_ELEMENT_THEORY":"SGP4","EPHEMERIS_TYPE":"0","TLE_LINE2":"2 48319  53.0534 307.1404 0001708  66.6082 293.5086 15.06408369 43563","MEAN_MOTION_DDOT":"0.0000000000000","REF_FRAME":"TEME","OBJECT_ID":"2021-036AV","INCLINATION":"53.0534","REV_AT_EPOCH":"4356","EPOCH":"2022-02-09T10:23:28.016160","DECAY_DATE":null,"OBJECT_NAME":"STARLINK-2512","CLASSIFICATION_TYPE":"U","ECCENTRICITY":"0.00017080","GP_ID":"195639862","ELEMENT_SET_NO":"999","TIME_SYSTEM":"UTC","RCS_SIZE":"LARGE","MEAN_ANOMALY":"293.5086","TLE_LINE1":"1 48319U 21036AV  22040.43296315  .00004773  00000-0  33905-3 0  9992","SITE":"AFETR","COUNTRY_CODE":"US","ARG_OF_PERICENTER":"66.6082","CENTER_NAME":"EARTH","OBJECT_TYPE":"PAYLOAD","BSTAR":"0.00033905000000"},{"GP_ID":"195640112","ECCENTRICITY":"0.00016690","CLASSIFICATION_TYPE":"U","OBJECT_NAME":"STARLINK-2029","ARG_OF_PERICENTER":"60.0916","COUNTRY_CODE":"US","OBJECT_TYPE":"PAYLOAD","BSTAR":"0.00021387000000","CENTER_NAME":"EARTH","ELEMENT_SET_NO":"999","MEAN_ANOMALY":"300.0239","TLE_LINE1":"1 48320U 21036AW  22040.56197533  .00002905  00000-0  21387-3 0  9996","SITE":"AFETR","TIME_SYSTEM":"UTC","RCS_SIZE":"LARGE","MEAN_MOTION_DOT":"0.00002905","PERIAPSIS":"546.074","FILE":"3295989","LAUNCH_DATE":"2021-04-29","TLE_LINE2":"2 48320  53.0559 306.5694 0001669  60.0916 300.0239 15.06394793 43587","MEAN_MOTION_DDOT":"0.0000000000000","PERIOD":"95.592","MEAN_ELEMENT_THEORY":"SGP4","EPHEMERIS_TYPE":"0","APOAPSIS":"548.385","MEAN_MOTION":"15.06394793","SEMIMAJOR_AXIS":"6925.365","NORAD_CAT_ID":"48320","RA_OF_ASC_NODE":"306.5694","DECAY_DATE":null,"OBJECT_ID":"2021-036AW","REF_FRAME":"TEME","EPOCH":"2022-02-09T13:29:14.668512","INCLINATION":"53.0559","REV_AT_EPOCH":"4358"}];
